VSP RF A1               
1 59135U 24043AP  26066.03073316  .00000577  00000+0  25199-4 0  9997
2 59135  97.5247 201.5379 0009431 234.6315 125.4042 15.26179596111403
STARLINK-34126          
1 64083U 25107V   26068.40115591  .00025398  00000+0  92824-3 0  9998
2 64083  42.9998 203.4065 0001550 276.3985  83.6690 15.27616604 44980
